[{"OBJECT_NAME":"STARLINK-3136","OBJECT_ID":"2021-104AM","EPOCH":"2026-03-09T14:23:32.648352","MEAN_MOTION":15.08849863,"ECCENTRICITY":7.82e-5,"INCLINATION":53.2167,"RA_OF_ASC_NODE":209.5242,"ARG_OF_PERICENTER":104.6169,"MEAN_ANOMALY":255.491,"EPHEMERIS_TYPE":0,"CLASSIFICATION_TYPE":"U","NORAD_CAT_ID":49443,"ELEMENT_SET_NO":999,"REV_AT_EPOCH":23890,"BSTAR":-0.00026245,"MEAN_MOTION_DOT":-4.463e-5,"MEAN_MOTION_DDOT":0},{"OBJECT_NAME":"OBJECT E","OBJECT_ID":"2025-013E","EPOCH":"2026-03-09T23:59:52.369152","MEAN_MOTION":15.10347623,"ECCENTRICITY":0.00085591,"INCLINATION":97.6477,"RA_OF_ASC_NODE":238.3736,"ARG_OF_PERICENTER":6.9171,"MEAN_ANOMALY":353.2174,"EPHEMERIS_TYPE":0,"CLASSIFICATION_TYPE":"U","NORAD_CAT_ID":62733,"ELEMENT_SET_NO":999,"REV_AT_EPOCH":6224,"BSTAR":0.00032920786,"MEAN_MOTION_DOT":5.34e-5,"MEAN_MOTION_DDOT":0}]
